NORAD_CAT_ID,OBJECT_NAME,OBJECT_TYPE,EPOCH,MEAN_MOTION,ECCENTRICITY,INCLINATION,RA_OF_ASC_NODE,ARG_OF_PERICENTER,MEAN_ANOMALY,BSTAR,MEAN_MOTION_DOT,MEAN_MOTION_DDOT,TLE_LINE0,TLE_LINE1,TLE_LINE2,SEMIMAJOR_AXIS,PERIOD,APOGEE,PERIGEE,DECAYED
52694.0,STARLINK-4072,PAYLOAD,2022-06-26 20:00:01,15.73208945,0.0002279,53.216,102.8289,29.9731,241.915,-0.00027748,-0.00039402,0.0,0 STARLINK-4072,1 52694U 22053AQ  22177.83334491 -.00039402  00000-0 -27748-3 0  9993,2 52694  53.2160 102.8289 0002279  29.9731 241.9150 15.73208945  6525,6727.87,91.533,351.26800000000014,348.201,0.0
52694.0,STARLINK-4072,PAYLOAD,2022-06-26 22:00:00,15.73196305,0.0002341,53.216,102.4171,29.801,354.3230000000001,-0.00019159,-0.00027422,0.0,0 STARLINK-4072,1 52694U 22053AQ  22177.91667824 -.00027422  00000-0 -19159-3 0  9997,2 52694  53.2160 102.4171 0002341  29.8010 354.3230 15.73196305  1305,6727.906,91.533,351.346,348.196,0.0
52694.0,STARLINK-4072,PAYLOAD,2022-06-27 14:00:01,15.73151558,0.0002183,53.2155,99.1174,25.3614,176.61900000000003,0.00038764,0.00054023,0.0,0 STARLINK-4072,1 52694U 22053AQ  22178.58334491  .00054023  00000-0  38764-3 0  9990,2 52694  53.2155  99.1174 0002183  25.3614 176.6190 15.73151558  6642,6728.033,91.536,351.367,348.43,0.0
52694.0,STARLINK-4072,PAYLOAD,2022-06-27 22:00:00,15.73213681,0.0002168,53.2158,97.469,28.5051,262.3652,3.8659e-05,4.811e-05,0.0,0 STARLINK-4072,1 52694U 22053AQ  22178.91667824  .00004811  00000-0  38659-4 0  9990,2 52694  53.2158  97.4690 0002168  28.5051 262.3652 15.73213681  1302,6727.856,91.532,351.18,348.26300000000015,0.0
52694.0,STARLINK-4072,PAYLOAD,2022-06-28 06:00:00,15.73192718,0.0002295,53.2158,95.821,21.5986,358.2047,-0.0001281,-0.00018556,0.0,0 STARLINK-4072,1 52694U 22053AQ  22179.25001157 -.00018556  00000-0 -12810-3 0  9992,2 52694  53.2158  95.8210 0002295  21.5986 358.2047 15.73192718  6746,6727.916,91.534,351.325,348.237,0.0
52694.0,STARLINK-4072,PAYLOAD,2022-06-28 14:00:01,15.73162371,0.0002011,53.2161,94.1695,18.0321,90.6817,-0.00030448,-0.00043069,0.0,0 STARLINK-4072,1 52694U 22053AQ  22179.58334491 -.00043069  00000-0 -30448-3 0  9992,2 52694  53.2161  94.1695 0002011  18.0321  90.6817 15.73162371  1300,6728.002,91.535,351.22,348.514,0.0
52694.0,STARLINK-4072,PAYLOAD,2022-06-28 22:00:00,15.73140471,0.0002091,53.2161,92.5211,17.9689,179.6094,1.8504e-05,1.97e-05,0.0,0 STARLINK-4072,1 52694U 22053AQ  22179.91667824  .00001970  00000-0  18504-4 0  9991,2 52694  53.2161  92.5211 0002091  17.9689 179.6094 15.73140471  6856,6728.065,91.537,351.337,348.523,0.0
52694.0,STARLINK-4072,PAYLOAD,2022-06-29 14:00:01,15.73138985,0.000195,53.2155,89.2215,18.5552,356.7493,0.00051561,0.00072179,0.0,0 STARLINK-4072,1 52694U 22053AQ  22180.58334491  .00072179  00000-0  51561-3 0  9995,2 52694  53.2155  89.2215 0001950  18.5552 356.7493 15.73138985  1308,6728.069,91.537,351.246,348.622,0.0
52694.0,STARLINK-4072,PAYLOAD,2022-06-29 22:00:00,15.73202291,0.0002043,53.2159,87.5732,19.226,84.9608,-8.8552e-06,-1.864e-05,0.0,0 STARLINK-4072,1 52694U 22053AQ  22180.91667824 -.00001864  00000-0 -88552-5 0  9998,2 52694  53.2159  87.5732 0002043  19.2260  84.9608 15.73202291  7008,6727.889,91.533,351.12800000000016,348.379,0.0
52694.0,STARLINK-4072,PAYLOAD,2022-06-30 14:00:01,15.73201552,0.0002024,53.216,84.2732,19.2898,262.7769,0.00052938,0.00074343,0.0,0 STARLINK-4072,1 52694U 22053AQ  22181.58334491  .00074343  00000-0  52938-3 0  9990,2 52694  53.2160  84.2732 0002024  19.2898 262.7769 15.73201552  1300,6727.891,91.533,351.117,348.394,0.0
52694.0,STARLINK-4072,PAYLOAD,2022-06-30 22:00:00,15.73267284,0.0002186,53.2162,82.6249,21.7722,349.2561,-5.3971e-05,-8.212e-05,0.0,0 STARLINK-4072,1 52694U 22053AQ  22181.91667824 -.00008212  00000-0 -53971-4 0  9999,2 52694  53.2162  82.6249 0002186  21.7722 349.2561 15.73267284  1305,6727.703,91.529,351.039,348.098,0.0
52694.0,STARLINK-4072,PAYLOAD,2022-07-01 06:00:00,15.73305323,0.0002442,53.216,80.9746,22.074,77.9532,-0.0010025,-0.00139659,0.0,0 STARLINK-4072,1 52694U 22053AQ  22182.25001157 -.00139659  00000-0 -10025-2 0  9999,2 52694  53.2160  80.9746 0002442  22.0740  77.9532 15.73305323  7211,6727.595,91.527,351.103,347.81699999999995,0.0
52694.0,STARLINK-4072,PAYLOAD,2022-07-01 14:00:01,15.73198446,0.000206,53.2153,79.3243,27.54,161.4682,0.00046558,0.00065228,0.0,0 STARLINK-4072,1 52694U 22053AQ  22182.58334491  .00065228  00000-0  46558-3 0  9994,2 52694  53.2153  79.3243 0002060  27.5400 161.4682 15.73198446  1301,6727.9,91.533,351.151,348.379,0.0
52694.0,STARLINK-4072,PAYLOAD,2022-07-01 20:00:01,15.73278987,0.000209,53.2157,78.08800000000002,26.7101,139.0007,-0.0008362,-0.00116768,0.0,0 STARLINK-4072,1 52694U 22053AQ  22182.83334491 -.00116768  00000-0 -83620-3 0  9991,2 52694  53.2157  78.0880 0002090  26.7101 139.0007 15.73278987  7307,6727.67,91.529,350.941,348.129,0.0
52694.0,STARLINK-4072,PAYLOAD,2022-07-01 22:00:00,15.73258866,0.0002143,53.2156,77.6762,24.6835,253.279,-0.00079205,-0.00110622,0.0,0 STARLINK-4072,1 52694U 22053AQ  22182.91667824 -.00110622  00000-0 -79205-3 0  9996,2 52694  53.2156  77.6762 0002143  24.6835 253.2790 15.73258866  1306,6727.727,91.53,351.034,348.151,0.0
52694.0,STARLINK-4072,PAYLOAD,2022-07-02 04:00:00,15.73159598,0.0002242,53.2156,76.4399,18.543,236.1483,0.00054163,0.00075956,0.0,0 STARLINK-4072,1 52694U 22053AQ  22183.16667824  .00075956  00000-0  54163-3 0  9998,2 52694  53.2156  76.4399 0002242  18.5430 236.1483 15.73159598  7365,6728.01,91.536,351.384,348.367,0.0
52694.0,STARLINK-4072,PAYLOAD,2022-07-02 14:00:01,15.73194732,0.0001997,53.2158,74.3755,22.1985,73.6557,0.00056116,0.00078863,0.0,0 STARLINK-4072,1 52694U 22053AQ  22183.58334491  .00078863  00000-0  56116-3 0  9995,2 52694  53.2158  74.3755 0001997  22.1985  73.6557 15.73194732  1305,6727.91,91.533,351.119,348.432,0.0
52694.0,STARLINK-4072,PAYLOAD,2022-07-02 22:00:00,15.73323501,0.0002163,53.2165,72.7262,26.1658,158.6297,-0.0012307,-0.00170807,0.0,0 STARLINK-4072,1 52694U 22053AQ  22183.91667824 -.00170807  00000-0 -12307-2 0  9997,2 52694  53.2165  72.7262 0002163  26.1658 158.6297 15.73323501  7483,6727.543000000002,91.526,350.86300000000006,347.95300000000015,0.0
52694.0,STARLINK-4072,PAYLOAD,2022-07-03 14:00:01,15.72869321,0.0002054,53.2173,69.4258,18.0869,344.3559,-0.0084547,-0.01053156,0.0,0 STARLINK-4072,1 52694U 22053AQ  22184.58334491 -.01053156  00000-0 -84547-2 0  9995,2 52694  53.2173  69.4258 0002054  18.0869 344.3559 15.72869321  1307,6728.8380000000025,91.552,352.085,349.321,0.0
52694.0,STARLINK-4072,PAYLOAD,2022-07-03 22:00:00,15.72110557,0.0002353,53.2173,67.7822,18.8045,71.7022,-0.0087318,-0.01052964,0.0,0 STARLINK-4072,1 52694U 22053AQ  22184.91667824 -.01052964  00000-0 -87318-2 0  9996,2 52694  53.2173  67.7822 0002353  18.8045  71.7022 15.72110557  1307,6731.003000000002,91.597,354.452,351.284,0.0
52694.0,STARLINK-4072,PAYLOAD,2022-07-04 14:00:01,15.70591331,0.000154,53.2173,64.4947,38.035,225.8669,-0.0093106,-0.01052259,0.0,0 STARLINK-4072,1 52694U 22053AQ  22185.58334491 -.01052259  00000-0 -93106-2 0  9990,2 52694  53.2173  64.4947 0001540  38.0350 225.8669 15.70591331  7743,6735.343000000003,91.685,358.245,356.171,0.0
52694.0,STARLINK-4072,PAYLOAD,2022-07-04 22:00:00,15.69833128,0.0001674,53.2175,62.8567,30.2024,319.0256,-0.0096249,-0.01053546,0.0,0 STARLINK-4072,1 52694U 22053AQ  22185.91667824 -.01053546  00000-0 -96249-2 0  9997,2 52694  53.2175  62.8567 0001674  30.2024 319.0256 15.69833128  1300,6737.511,91.729,360.504,358.249,0.0
52694.0,STARLINK-4072,PAYLOAD,2022-07-05 14:00:01,15.68313295,0.0001748,53.2174,59.5804,35.2945,121.8528,-0.010239,-0.01052208,0.0,0 STARLINK-4072,1 52694U 22053AQ  22186.58334491 -.01052208  00000-0 -10239-1 0  9990,2 52694  53.2174  59.5804 0001748  35.2945 121.8528 15.68313295  1303,6741.864000000001,91.818,364.907,362.55,0.0
52694.0,STARLINK-4072,PAYLOAD,2022-07-05 22:00:00,15.67553067,0.0001748,53.2173,57.948,35.6848,204.0513,-0.010546,-0.01050507,0.0,0 STARLINK-4072,1 52694U 22053AQ  22186.91667824 -.01050507  00000-0 -10546-1 0  9997,2 52694  53.2173  57.9480 0001748  35.6848 204.0513 15.67553067  1300,6744.043000000002,91.863,367.087,364.729,0.0
52694.0,STARLINK-4072,PAYLOAD,2022-07-06 06:00:00,15.66795642,0.0001269,53.2173,56.315,46.1793,275.2337,-0.010911,-0.0105317,0.0,0 STARLINK-4072,1 52694U 22053AQ  22187.25001157 -.01053170  00000-0 -10911-1 0  9991,2 52694  53.2173  56.3150 0001269  46.1793 275.2337 15.66795642  8005,6746.215999999999,91.907,368.93800000000016,367.225,0.0
52694.0,STARLINK-4072,PAYLOAD,2022-07-06 14:00:01,15.66033151,0.0001720999999999,53.2174,54.6826,28.5,13.6795,-0.0112,-0.01048724,0.0,0 STARLINK-4072,1 52694U 22053AQ  22187.58334491 -.01048724  00000-0 -11200-1 0  9998,2 52694  53.2174  54.6826 0001721  28.5000  13.6795 15.66033151  1303,6748.406,91.952,371.432,369.11,0.0
52694.0,STARLINK-4072,PAYLOAD,2022-07-06 20:00:01,15.6546579,0.0001764,53.2175,53.4624,27.6285,344.5235,-0.011494,-0.01051531,0.0,0 STARLINK-4072,1 52694U 22053AQ  22187.83334491 -.01051531  00000-0 -11494-1 0  9991,2 52694  53.2175  53.4624 0001764  27.6285 344.5235 15.65465790  8094,6750.036,91.985,373.092,370.711,0.0
52694.0,STARLINK-4072,PAYLOAD,2022-07-06 21:28:52,15.6598872,0.0001957,53.2156,53.1423,65.1983,294.9238,-0.0052146,-0.00510862,0.0,0 STARLINK-4072,1 52694U 22053AQ  22187.89504853 -.00510862  00000-0 -52146-2 0  9994,2 52694  53.2156  53.1423 0001957  65.1983 294.9238 15.65988720  8503,6748.534000000002,91.955,371.719,369.078,0.0
52694.0,STARLINK-4072,PAYLOAD,2022-07-07 14:00:01,15.6375521,0.000161,53.2176,49.8015,36.5518,242.4449,-0.012264,-0.0104799,0.0,0 STARLINK-4072,1 52694U 22053AQ  22188.58334491 -.01047990  00000-0 -12264-1 0  9994,2 52694  53.2176  49.8015 0001610  36.5518 242.4449 15.63755210  8210,6754.958000000001,92.086,377.911,375.736,0.0
